ONEWEB-0349             
1 49281U 21090C   26140.65249464  .00000067  00000+0  13300-3 0  9991
2 49281  87.9173 279.9316 0001851  99.8098 260.3245 13.20769270226195
ONEWEB-0353             
1 49282U 21090D   26141.26500728  .00000185  00000+0  46570-3 0  9999
2 49282  87.8940 295.0741 0001760  88.4626 271.6706 13.14503689224040
ONEWEB-0356             
1 49283U 21090E   26140.65083419  .00000072  00000+0  14513-3 0  9992
2 49283  87.9176 279.9254 0002666  93.0727 267.0712 13.20768980226191
ONEWEB-0358             
1 49284U 21090F   26141.13479387 -.00000068  00000+0 -19888-3 0  9997
2 49284  87.9173 279.8322 0002013 102.4551 257.6807 13.20772991226984
ONEWEB-0359             
1 49285U 21090G   26141.13230879  .00000033  00000+0  50385-4 0  9997
2 49285  87.9172 279.8292 0002000 106.7207 253.4146 13.20770914226962
ONEWEB-0360             
1 49286U 21090H   26141.12220601 -.00000001  00000+0 -34616-4 0  9995
2 49286  87.9174 279.8373 0001899 103.9596 256.1749 13.20771969226274
ONEWEB-0361             
1 49287U 21090J   26140.34610161  .00000081  00000+0  16823-3 0  9998
2 49287  87.9174 279.9904 0001960 101.5647 258.5707 13.20773488226623
ONEWEB-0362             
1 49288U 21090K   26141.03481705  .00000016  00000+0  70775-5 0  9992
2 49288  87.9147 310.3919 0001539  95.5534 264.5774 13.19726312223337
ONEWEB-0363             
1 49289U 21090L   26140.66427206  .00000067  00000+0  13335-3 0  9990
2 49289  87.9172 279.9274 0002231  99.0132 261.1254 13.20772231226672
ONEWEB-0364             
1 49290U 21090M   26140.32420298  .00000036  00000+0  56538-4 0  9998
2 49290  87.9167 280.0042 0001879  99.7895 260.3450 13.20769545227768
ONEWEB-0365             
1 49291U 21090N   26140.96848501  .00000069  00000+0  13952-3 0  9998
2 49291  87.9157 310.3913 0001726  91.1860 268.9470 13.19726302222832
ONEWEB-0366             
1 49292U 21090P   26141.18570828  .00000246  00000+0  62803-3 0  9994
2 49292  87.8934 295.0929 0001828  98.5416 261.5921 13.14504212224013
ONEWEB-0367             
1 49293U 21090Q   26140.36043409  .00000072  00000+0  14608-3 0  9991
2 49293  87.9172 279.9888 0001704  99.8310 260.3015 13.20771199226159
ONEWEB-0368             
1 49294U 21090R   26141.09190965  .00000051  00000+0  93481-4 0  9997
2 49294  87.9162 279.8567 0002216  81.1059 279.0326 13.20771092227408
ONEWEB-0369             
1 49295U 21090S   26141.19119540  .00000062  00000+0  12185-3 0  9992
2 49295  87.9148 310.3570 0001834  90.3536 269.7807 13.19725689222858
ONEWEB-0370             
1 49296U 21090T   26140.82422898  .00000032  00000+0  47810-4 0  9996
2 49296  87.9169 279.8963 0001778 106.8621 253.2707 13.20773148226252
