[{"OBJECT_NAME":"ONEWEB-0349","OBJECT_ID":"2021-090C","EPOCH":"2026-05-20T15:39:35.536896","MEAN_MOTION":13.2076927,"ECCENTRICITY":0.0001851,"INCLINATION":87.9173,"RA_OF_ASC_NODE":279.9316,"ARG_OF_PERICENTER":99.8098,"MEAN_ANOMALY":260.3245,"EPHEMERIS_TYPE":0,"CLASSIFICATION_TYPE":"U","NORAD_CAT_ID":49281,"ELEMENT_SET_NO":999,"REV_AT_EPOCH":22619,"BSTAR":0.000133,"MEAN_MOTION_DOT":6.7e-07,"MEAN_MOTION_DDOT":0.0},{"OBJECT_NAME":"ONEWEB-0353","OBJECT_ID":"2021-090D","EPOCH":"2026-05-21T06:21:36.628992","MEAN_MOTION":13.14503689,"ECCENTRICITY":0.000176,"INCLINATION":87.894,"RA_OF_ASC_NODE":295.0741,"ARG_OF_PERICENTER":88.4626,"MEAN_ANOMALY":271.6706,"EPHEMERIS_TYPE":0,"CLASSIFICATION_TYPE":"U","NORAD_CAT_ID":49282,"ELEMENT_SET_NO":999,"REV_AT_EPOCH":22404,"BSTAR":0.0004657,"MEAN_MOTION_DOT":1.85e-06,"MEAN_MOTION_DDOT":0.0},{"OBJECT_NAME":"ONEWEB-0356","OBJECT_ID":"2021-090E","EPOCH":"2026-05-20T15:37:12.074016","MEAN_MOTION":13.2076898,"ECCENTRICITY":0.0002666,"INCLINATION":87.9176,"RA_OF_ASC_NODE":279.9254,"ARG_OF_PERICENTER":93.0727,"MEAN_ANOMALY":267.0712,"EPHEMERIS_TYPE":0,"CLASSIFICATION_TYPE":"U","NORAD_CAT_ID":49283,"ELEMENT_SET_NO":999,"REV_AT_EPOCH":22619,"BSTAR":0.00014513000000000001,"MEAN_MOTION_DOT":7.2e-07,"MEAN_MOTION_DDOT":0.0},{"OBJECT_NAME":"ONEWEB-0358","OBJECT_ID":"2021-090F","EPOCH":"2026-05-21T03:14:06.190368","MEAN_MOTION":13.20772991,"ECCENTRICITY":0.0002013,"INCLINATION":87.9173,"RA_OF_ASC_NODE":279.8322,"ARG_OF_PERICENTER":102.4551,"MEAN_ANOMALY":257.6807,"EPHEMERIS_TYPE":0,"CLASSIFICATION_TYPE":"U","NORAD_CAT_ID":49284,"ELEMENT_SET_NO":999,"REV_AT_EPOCH":22698,"BSTAR":-0.00019888,"MEAN_MOTION_DOT":-6.8e-07,"MEAN_MOTION_DDOT":0.0},{"OBJECT_NAME":"ONEWEB-0359","OBJECT_ID":"2021-090G","EPOCH":"2026-05-21T03:10:31.479456","MEAN_MOTION":13.20770914,"ECCENTRICITY":0.0002,"INCLINATION":87.9172,"RA_OF_ASC_NODE":279.8292,"ARG_OF_PERICENTER":106.7207,"MEAN_ANOMALY":253.4146,"EPHEMERIS_TYPE":0,"CLASSIFICATION_TYPE":"U","NORAD_CAT_ID":49285,"ELEMENT_SET_NO":999,"REV_AT_EPOCH":22696,"BSTAR":5.0385000000000006e-05,"MEAN_MOTION_DOT":3.3e-07,"MEAN_MOTION_DDOT":0.0},{"OBJECT_NAME":"ONEWEB-0360","OBJECT_ID":"2021-090H","EPOCH":"2026-05-21T02:55:58.599264","MEAN_MOTION":13.20771969,"ECCENTRICITY":0.0001899,"INCLINATION":87.9174,"RA_OF_ASC_NODE":279.8373,"ARG_OF_PERICENTER":103.9596,"MEAN_ANOMALY":256.1749,"EPHEMERIS_TYPE":0,"CLASSIFICATION_TYPE":"U","NORAD_CAT_ID":49286,"ELEMENT_SET_NO":999,"REV_AT_EPOCH":22627,"BSTAR":-3.4616e-05,"MEAN_MOTION_DOT":-1e-08,"MEAN_MOTION_DDOT":0.0},{"OBJECT_NAME":"ONEWEB-0361","OBJECT_ID":"2021-090J","EPOCH":"2026-05-20T08:18:23.179104","MEAN_MOTION":13.20773488,"ECCENTRICITY":0.000196,"INCLINATION":87.9174,"RA_OF_ASC_NODE":279.9904,"ARG_OF_PERICENTER":101.5647,"MEAN_ANOMALY":258.5707,"EPHEMERIS_TYPE":0,"CLASSIFICATION_TYPE":"U","NORAD_CAT_ID":49287,"ELEMENT_SET_NO":999,"REV_AT_EPOCH":22662,"BSTAR":0.00016823,"MEAN_MOTION_DOT":8.1e-07,"MEAN_MOTION_DDOT":0.0},{"OBJECT_NAME":"ONEWEB-0362","OBJECT_ID":"2021-090K","EPOCH":"2026-05-21T00:50:08.193120","MEAN_MOTION":13.19726312,"ECCENTRICITY":0.0001539,"INCLINATION":87.9147,"RA_OF_ASC_NODE":310.3919,"ARG_OF_PERICENTER":95.5534,"MEAN_ANOMALY":264.5774,"EPHEMERIS_TYPE":0,"CLASSIFICATION_TYPE":"U","NORAD_CAT_ID":49288,"ELEMENT_SET_NO":999,"REV_AT_EPOCH":22333,"BSTAR":7.0775000000000004e-06,"MEAN_MOTION_DOT":1.6e-07,"MEAN_MOTION_DDOT":0.0},{"OBJECT_NAME":"ONEWEB-0363","OBJECT_ID":"2021-090L","EPOCH":"2026-05-20T15:56:33.105984","MEAN_MOTION":13.20772231,"ECCENTRICITY":0.0002231,"INCLINATION":87.9172,"RA_OF_ASC_NODE":279.9274,"ARG_OF_PERICENTER":99.0132,"MEAN_ANOMALY":261.1254,"EPHEMERIS_TYPE":0,"CLASSIFICATION_TYPE":"U","NORAD_CAT_ID":49289,"ELEMENT_SET_NO":999,"REV_AT_EPOCH":22667,"BSTAR":0.00013335,"MEAN_MOTION_DOT":6.7e-07,"MEAN_MOTION_DDOT":0.0},{"OBJECT_NAME":"ONEWEB-0364","OBJECT_ID":"2021-090M","EPOCH":"2026-05-20T07:46:51.137472","MEAN_MOTION":13.20769545,"ECCENTRICITY":0.0001879,"INCLINATION":87.9167,"RA_OF_ASC_NODE":280.0042,"ARG_OF_PERICENTER":99.7895,"MEAN_ANOMALY":260.345,"EPHEMERIS_TYPE":0,"CLASSIFICATION_TYPE":"U","NORAD_CAT_ID":49290,"ELEMENT_SET_NO":999,"REV_AT_EPOCH":22776,"BSTAR":5.6538e-05,"MEAN_MOTION_DOT":3.6e-07,"MEAN_MOTION_DDOT":0.0},{"OBJECT_NAME":"ONEWEB-0365","OBJECT_ID":"2021-090N","EPOCH":"2026-05-20T23:14:37.104864","MEAN_MOTION":13.19726302,"ECCENTRICITY":0.0001726,"INCLINATION":87.9157,"RA_OF_ASC_NODE":310.3913,"ARG_OF_PERICENTER":91.186,"MEAN_ANOMALY":268.947,"EPHEMERIS_TYPE":0,"CLASSIFICATION_TYPE":"U","NORAD_CAT_ID":49291,"ELEMENT_SET_NO":999,"REV_AT_EPOCH":22283,"BSTAR":0.00013952000000000002,"MEAN_MOTION_DOT":6.9e-07,"MEAN_MOTION_DDOT":0.0},{"OBJECT_NAME":"ONEWEB-0366","OBJECT_ID":"2021-090P","EPOCH":"2026-05-21T04:27:25.195392","MEAN_MOTION":13.14504212,"ECCENTRICITY":0.0001828,"INCLINATION":87.8934,"RA_OF_ASC_NODE":295.0929,"ARG_OF_PERICENTER":98.5416,"MEAN_ANOMALY":261.5921,"EPHEMERIS_TYPE":0,"CLASSIFICATION_TYPE":"U","NORAD_CAT_ID":49292,"ELEMENT_SET_NO":999,"REV_AT_EPOCH":22401,"BSTAR":0.00062803,"MEAN_MOTION_DOT":2.46e-06,"MEAN_MOTION_DDOT":0.0},{"OBJECT_NAME":"ONEWEB-0367","OBJECT_ID":"2021-090Q","EPOCH":"2026-05-20T08:39:01.505376","MEAN_MOTION":13.20771199,"ECCENTRICITY":0.0001704,"INCLINATION":87.9172,"RA_OF_ASC_NODE":279.9888,"ARG_OF_PERICENTER":99.831,"MEAN_ANOMALY":260.3015,"EPHEMERIS_TYPE":0,"CLASSIFICATION_TYPE":"U","NORAD_CAT_ID":49293,"ELEMENT_SET_NO":999,"REV_AT_EPOCH":22615,"BSTAR":0.00014607999999999998,"MEAN_MOTION_DOT":7.2e-07,"MEAN_MOTION_DDOT":0.0},{"OBJECT_NAME":"ONEWEB-0368","OBJECT_ID":"2021-090R","EPOCH":"2026-05-21T02:12:20.993760","MEAN_MOTION":13.20771092,"ECCENTRICITY":0.0002216,"INCLINATION":87.9162,"RA_OF_ASC_NODE":279.8567,"ARG_OF_PERICENTER":81.1059,"MEAN_ANOMALY":279.0326,"EPHEMERIS_TYPE":0,"CLASSIFICATION_TYPE":"U","NORAD_CAT_ID":49294,"ELEMENT_SET_NO":999,"REV_AT_EPOCH":22740,"BSTAR":9.348100000000001e-05,"MEAN_MOTION_DOT":5.1e-07,"MEAN_MOTION_DDOT":0.0},{"OBJECT_NAME":"ONEWEB-0369","OBJECT_ID":"2021-090S","EPOCH":"2026-05-21T04:35:19.282560","MEAN_MOTION":13.19725689,"ECCENTRICITY":0.0001834,"INCLINATION":87.9148,"RA_OF_ASC_NODE":310.357,"ARG_OF_PERICENTER":90.3536,"MEAN_ANOMALY":269.7807,"EPHEMERIS_TYPE":0,"CLASSIFICATION_TYPE":"U","NORAD_CAT_ID":49295,"ELEMENT_SET_NO":999,"REV_AT_EPOCH":22285,"BSTAR":0.00012185000000000001,"MEAN_MOTION_DOT":6.2e-07,"MEAN_MOTION_DDOT":0.0},{"OBJECT_NAME":"ONEWEB-0370","OBJECT_ID":"2021-090T","EPOCH":"2026-05-20T19:46:53.383872","MEAN_MOTION":13.20773148,"ECCENTRICITY":0.0001778,"INCLINATION":87.9169,"RA_OF_ASC_NODE":279.8963,"ARG_OF_PERICENTER":106.8621,"MEAN_ANOMALY":253.2707,"EPHEMERIS_TYPE":0,"CLASSIFICATION_TYPE":"U","NORAD_CAT_ID":49296,"ELEMENT_SET_NO":999,"REV_AT_EPOCH":22625,"BSTAR":4.7810000000000005e-05,"MEAN_MOTION_DOT":3.2e-07,"MEAN_MOTION_DDOT":0.0}]